[{"OBJECT_NAME":"STARLINK-34186","OBJECT_ID":"2025-111Y","EPOCH":"2026-03-09T10:33:02.609856","MEAN_MOTION":15.27617234,"ECCENTRICITY":0.00013915,"INCLINATION":43.0012,"RA_OF_ASC_NODE":79.4066,"ARG_OF_PERICENTER":285.7216,"MEAN_ANOMALY":74.3482,"EPHEMERIS_TYPE":0,"CLASSIFICATION_TYPE":"U","NORAD_CAT_ID":64145,"ELEMENT_SET_NO":999,"REV_AT_EPOCH":4542,"BSTAR":0.0006082668,"MEAN_MOTION_DOT":0.00016533,"MEAN_MOTION_DDOT":0},{"OBJECT_NAME":"FENGYUN 1C DEB","OBJECT_ID":"1999-025FBF","EPOCH":"2026-03-06T07:33:49.292640","MEAN_MOTION":15.04395515,"ECCENTRICITY":0.01189701,"INCLINATION":98.9505,"RA_OF_ASC_NODE":84.7158,"ARG_OF_PERICENTER":75.0888,"MEAN_ANOMALY":286.3472,"EPHEMERIS_TYPE":0,"CLASSIFICATION_TYPE":"U","NORAD_CAT_ID":47029,"ELEMENT_SET_NO":999,"REV_AT_EPOCH":4330,"BSTAR":0.0027080259,"MEAN_MOTION_DOT":0.00044409,"MEAN_MOTION_DDOT":0}]
